TEVEL2-6                
1 63215U 25052F   26068.64958975  .00021046  00000+0  70909-3 0  9996
2 63215  97.4016 325.0381 0004769  95.6604 264.5181 15.30760889 54861
STARLINK-35632          
1 66129U 25237R   26068.19873895  .00026667  00000+0  90965-3 0  9993
2 66129  53.1611  42.0282 0001065 112.3321 247.7793 15.30186129 22533
